{
  "type": "FeatureCollection",
  "name": "Wall",
  "metadata": {
    "status": "PROVISIONAL_FAILS_DAY_03_ACCEPTANCE",
    "map_source_id": "MAP-001",
    "coordinates": "RFC 7946 WGS84 lon/lat",
    "working_metric_crs": "EPSG:32649",
    "source_pixel_trace": "Data/Map_Pixel_Traces_Provisional.json",
    "transform": "Data/Map_Transform_Provisional.json"
  },
  "features": [
    {
      "type": "Feature",
      "geometry": {
        "type": "LineString",
        "coordinates": [
          [
            113.24906302915089,
            23.13324902215696
          ],
          [
            113.25051240661374,
            23.133764797872878
          ],
          [
            113.2516700446067,
            23.134447905444194
          ],
          [
            113.25267656246254,
            23.13597545046227
          ],
          [
            113.25357530093055,
            23.137333284881876
          ],
          [
            113.25538517657279,
            23.138256893673873
          ],
          [
            113.25719670260008,
            23.138943795345362
          ],
          [
            113.25918684988922,
            23.140071293343624
          ],
          [
            113.26063749096306,
            23.14041790678518
          ],
          [
            113.26245600008077,
            23.14009038538668
          ],
          [
            113.26500788650335,
            23.138752712054266
          ],
          [
            113.26711924417255,
            23.138088710141293
          ],
          [
            113.26901883683375,
            23.13651050049393
          ],
          [
            113.27048045444297,
            23.135234057880577
          ],
          [
            113.27195051095005,
            23.13270656753653
          ],
          [
            113.27331269528938,
            23.130009379871577
          ],
          [
            113.27325491239867,
            23.127811195144773
          ],
          [
            113.27272680844194,
            23.125339789912488
          ],
          [
            113.27238009405582,
            23.122903241755377
          ],
          [
            113.2702037051377,
            23.1224848943229
          ],
          [
            113.26766528889509,
            23.12189534720475
          ],
          [
            113.26513012260723,
            23.120832389936076
          ],
          [
            113.26314069423123,
            23.119637321986566
          ],
          [
            113.26042656303007,
            23.118201289506764
          ],
          [
            113.25734954294221,
            23.11672925945186
          ],
          [
            113.25535790466087,
            23.115872204064967
          ],
          [
            113.25209424796833,
            23.115142861635636
          ],
          [
            113.24937537871592,
            23.114416679512654
          ],
          [
            113.24774463409989,
            23.11389979705263
          ],
          [
            113.24744185769995,
            23.115656311152538
          ],
          [
            113.24749802042444,
            23.11802360356016
          ],
          [
            113.24759050777547,
            23.120391110747004
          ],
          [
            113.24793606308101,
            23.122929186840754
          ],
          [
            113.24839059630118,
            23.12546790637781
          ],
          [
            113.2489201399678,
            23.127668930481278
          ],
          [
            113.24908531722718,
            23.130036861809916
          ],
          [
            113.24906302915089,
            23.13324902215696
          ]
        ]
      },
      "properties": {
        "id": "WALL-OUTER-01",
        "name": "Indicative outer walled-city circuit",
        "source_id": "MAP-001",
        "source_date": "1880",
        "georef_status": "PROVISIONAL_FAILS_DAY_03_ACCEPTANCE",
        "historical_confidence": "D",
        "digitization": "coarse visual trace",
        "preview_pixel_coordinates": [
          [
            650,
            270
          ],
          [
            690,
            255
          ],
          [
            722,
            235
          ],
          [
            750,
            190
          ],
          [
            775,
            150
          ],
          [
            825,
            123
          ],
          [
            875,
            103
          ],
          [
            930,
            70
          ],
          [
            970,
            60
          ],
          [
            1020,
            70
          ],
          [
            1090,
            110
          ],
          [
            1148,
            130
          ],
          [
            1200,
            177
          ],
          [
            1240,
            215
          ],
          [
            1280,
            290
          ],
          [
            1317,
            370
          ],
          [
            1315,
            435
          ],
          [
            1300,
            508
          ],
          [
            1290,
            580
          ],
          [
            1230,
            592
          ],
          [
            1160,
            609
          ],
          [
            1090,
            640
          ],
          [
            1035,
            675
          ],
          [
            960,
            717
          ],
          [
            875,
            760
          ],
          [
            820,
            785
          ],
          [
            730,
            806
          ],
          [
            655,
            827
          ],
          [
            610,
            842
          ],
          [
            602,
            790
          ],
          [
            604,
            720
          ],
          [
            607,
            650
          ],
          [
            617,
            575
          ],
          [
            630,
            500
          ],
          [
            645,
            435
          ],
          [
            650,
            365
          ],
          [
            650,
            270
          ]
        ],
        "metric_crs": "EPSG:32649",
        "metric_bounds_m": [
          730165.7,
          2557901.7,
          732791.4,
          2560859.3
        ]
      }
    },
    {
      "type": "Feature",
      "geometry": {
        "type": "LineString",
        "coordinates": [
          [
            113.24767843518183,
            23.118193743293926
          ],
          [
            113.25098034540854,
            23.11865289002664
          ],
          [
            113.25388183519482,
            23.119244858981457
          ],
          [
            113.2573255626957,
            23.12021190714528
          ],
          [
            113.26004318940318,
            23.121140811328125
          ],
          [
            113.26348399288713,
            23.122547273106804
          ],
          [
            113.26692532318832,
            23.123886029989762
          ],
          [
            113.26982559336011,
            23.124680561651484
          ],
          [
            113.27272726605777,
            23.125272166303404
          ]
        ]
      },
      "properties": {
        "id": "WALL-INNER-01",
        "name": "Indicative Old City south wall",
        "source_id": "MAP-001",
        "source_date": "1880",
        "georef_status": "PROVISIONAL_FAILS_DAY_03_ACCEPTANCE",
        "historical_confidence": "D",
        "digitization": "coarse visual trace",
        "preview_pixel_coordinates": [
          [
            609,
            715
          ],
          [
            700,
            702
          ],
          [
            780,
            685
          ],
          [
            875,
            657
          ],
          [
            950,
            630
          ],
          [
            1045,
            589
          ],
          [
            1140,
            550
          ],
          [
            1220,
            527
          ],
          [
            1300,
            510
          ]
        ],
        "metric_crs": "EPSG:32649",
        "metric_bounds_m": [
          730185.6,
          2558377.2,
          732739.6,
          2559201.0
        ]
      }
    }
  ]
}
